{
    "links": {
        "self": "http://www.neowsapp.com/rest/v1/neo/3638240?api_key=iIulBulltgU6a56xZRHN4H3l9WmuAYTsLGpBGhQ2"
    },
    "id": "3638240",
    "neo_reference_id": "3638240",
    "name": "(2013 JR7)",
    "designation": "2013 JR7",
    "nasa_jpl_url": "http://ssd.jpl.nasa.gov/sbdb.cgi?sstr=3638240",
    "absolute_magnitude_h": 26.8,
    "estimated_diameter": {
        "kilometers": {
            "estimated_diameter_min": 0.0116025908,
            "estimated_diameter_max": 0.0259441818
        },
        "meters": {
            "estimated_diameter_min": 11.6025908209,
            "estimated_diameter_max": 25.9441817907
        },
        "miles": {
            "estimated_diameter_min": 0.0072095135,
            "estimated_diameter_max": 0.0161209622
        },
        "feet": {
            "estimated_diameter_min": 38.066244069,
            "estimated_diameter_max": 85.1187093863
        }
    },
    "is_potentially_hazardous_asteroid": false,
    "close_approach_data": [
        {
            "close_approach_date": "1972-01-11",
            "close_approach_date_full": "1972-Jan-11 22:28",
            "epoch_date_close_approach": 64016880000,
            "relative_velocity": {
                "kilometers_per_second": "4.2731960628",
                "kilometers_per_hour": "15383.5058262472",
                "miles_per_hour": "9558.7122729812"
            },
            "miss_distance": {
                "astronomical": "0.0689095255",
                "lunar": "26.8058054195",
                "kilometers": "10308718.237510685",
                "miles": "6405540.483930053"
            },
            "orbiting_body": "Mars"
        },
        {
            "close_approach_date": "2013-05-10",
            "close_approach_date_full": "2013-May-10 00:58",
            "epoch_date_close_approach": 1368147480000,
            "relative_velocity": {
                "kilometers_per_second": "6.9802034955",
                "kilometers_per_hour": "25128.7325837686",
                "miles_per_hour": "15614.0171990644"
            },
            "miss_distance": {
                "astronomical": "0.0237564209",
                "lunar": "9.2412477301",
                "kilometers": "3553909.965463483",
                "miles": "2208297.2524347454"
            },
            "orbiting_body": "Earth"
        },
        {
            "close_approach_date": "2013-09-22",
            "close_approach_date_full": "2013-Sep-22 01:59",
            "epoch_date_close_approach": 1379815140000,
            "relative_velocity": {
                "kilometers_per_second": "5.0517107756",
                "kilometers_per_hour": "18186.1587920318",
                "miles_per_hour": "11300.17183386"
            },
            "miss_distance": {
                "astronomical": "0.2580573792",
                "lunar": "100.3843205088",
                "kilometers": "38604834.266102304",
                "miles": "23987931.6777836352"
            },
            "orbiting_body": "Earth"
        }
    ],
    "orbital_data": {
        "orbit_id": "6",
        "orbit_determination_date": "2019-07-11 06:01:26",
        "first_observation_date": "2013-05-03",
        "last_observation_date": "2013-05-04",
        "data_arc_in_days": 1,
        "observations_used": 7,
        "orbit_uncertainty": "7",
        "minimum_orbit_intersection": ".0233473",
        "jupiter_tisserand_invariant": "5.108",
        "epoch_osculation": "2459000.5",
        "eccentricity": ".2224138617855365",
        "semi_major_axis": "1.249444991078649",
        "inclination": "9.107972393425108",
        "ascending_node_longitude": "43.11657032850464",
        "orbital_period": "510.1220982539191",
        "perihelion_distance": ".9715511055242513",
        "perihelion_argument": "230.8826426540485",
        "aphelion_distance": "1.527338876633046",
        "perihelion_time": "2459019.027939296849",
        "mean_anomaly": "346.9245849774078",
        "mean_motion": ".7057133992670238",
        "equinox": "J2000",
        "orbit_class": {
            "orbit_class_type": "APO",
            "orbit_class_description": "Near-Earth asteroid orbits which cross the Earth’s orbit similar to that of 1862 Apollo",
            "orbit_class_range": "a (semi-major axis) > 1.0 AU; q (perihelion) < 1.017 AU"
        }
    },
    "is_sentry_object": false
}